[{"OBJECT_NAME":"OUTPOST MISSION 1","OBJECT_ID":"2023-084BK","EPOCH":"2026-03-09T23:19:35.444064","MEAN_MOTION":15.70083334,"ECCENTRICITY":0.00047289,"INCLINATION":97.5968,"RA_OF_ASC_NODE":222.1792,"ARG_OF_PERICENTER":254.2575,"MEAN_ANOMALY":105.8165,"EPHEMERIS_TYPE":0,"CLASSIFICATION_TYPE":"U","NORAD_CAT_ID":56226,"ELEMENT_SET_NO":999,"REV_AT_EPOCH":15332,"BSTAR":0.000839791,"MEAN_MOTION_DOT":0.00102103,"MEAN_MOTION_DDOT":0},{"OBJECT_NAME":"STARLINK-11313 [DTC]","OBJECT_ID":"2024-175N","EPOCH":"2026-03-09T22:23:57.665184","MEAN_MOTION":15.69709121,"ECCENTRICITY":0.00015672,"INCLINATION":53.1582,"RA_OF_ASC_NODE":55.1397,"ARG_OF_PERICENTER":102.8597,"MEAN_ANOMALY":257.2596,"EPHEMERIS_TYPE":0,"CLASSIFICATION_TYPE":"U","NORAD_CAT_ID":61255,"ELEMENT_SET_NO":999,"REV_AT_EPOCH":8340,"BSTAR":7.2623316e-5,"MEAN_MOTION_DOT":8.217e-5,"MEAN_MOTION_DDOT":0}]
